GALAXY 31 (G-31)        
1 54243U 22153A   26116.68395993  .00000001  00000+0  00000+0 0  9998
2 54243   0.0128 242.4323 0001342 153.9461 303.5201  1.00273554  6614
GALAXY 32 (G-32)        
1 54244U 22153B   26116.54729101 -.00000186  00000+0  00000+0 0  9991
2 54244   0.0160 281.6637 0002791  99.2496 299.6544  1.00269851 12621
GALAXY 35 (G-35)        
1 54741U 22170A   26116.83200984 -.00000173  00000+0  00000+0 0  9993
2 54741   0.0323 103.2827 0002017 291.7788  26.1751  1.00271676 12371
GALAXY 36 (G-36)        
1 54742U 22170B   26116.83287652 -.00000196  00000+0  00000+0 0  9996
2 54742   0.0121 194.1443 0002758 230.6028   0.9164  1.00271492 12253
GALAXY 37 (G-37)        
1 57493U 23112A   26116.68274660  .00000000  00000+0  00000+0 0  9990
2 57493   0.0133 243.6122 0002178 150.2007 299.6602  1.00270220 10021
