[{"OBJECT_NAME":"GALAXY 31 (G-31)","OBJECT_ID":"2022-153A","EPOCH":"2026-04-26T16:24:54.137952","MEAN_MOTION":1.00273554,"ECCENTRICITY":0.0001342,"INCLINATION":0.0128,"RA_OF_ASC_NODE":242.4323,"ARG_OF_PERICENTER":153.9461,"MEAN_ANOMALY":303.5201,"EPHEMERIS_TYPE":0,"CLASSIFICATION_TYPE":"U","NORAD_CAT_ID":54243,"ELEMENT_SET_NO":999,"REV_AT_EPOCH":661,"BSTAR":0,"MEAN_MOTION_DOT":1.0e-8,"MEAN_MOTION_DDOT":0},{"OBJECT_NAME":"GALAXY 32 (G-32)","OBJECT_ID":"2022-153B","EPOCH":"2026-04-26T13:08:05.943264","MEAN_MOTION":1.00269851,"ECCENTRICITY":0.0002791,"INCLINATION":0.016,"RA_OF_ASC_NODE":281.6637,"ARG_OF_PERICENTER":99.2496,"MEAN_ANOMALY":299.6544,"EPHEMERIS_TYPE":0,"CLASSIFICATION_TYPE":"U","NORAD_CAT_ID":54244,"ELEMENT_SET_NO":999,"REV_AT_EPOCH":1262,"BSTAR":0,"MEAN_MOTION_DOT":-1.86e-6,"MEAN_MOTION_DDOT":0},{"OBJECT_NAME":"GALAXY 35 (G-35)","OBJECT_ID":"2022-170A","EPOCH":"2026-04-26T19:58:05.650176","MEAN_MOTION":1.00271676,"ECCENTRICITY":0.0002017,"INCLINATION":0.0323,"RA_OF_ASC_NODE":103.2827,"ARG_OF_PERICENTER":291.7788,"MEAN_ANOMALY":26.1751,"EPHEMERIS_TYPE":0,"CLASSIFICATION_TYPE":"U","NORAD_CAT_ID":54741,"ELEMENT_SET_NO":999,"REV_AT_EPOCH":1237,"BSTAR":0,"MEAN_MOTION_DOT":-1.73e-6,"MEAN_MOTION_DDOT":0},{"OBJECT_NAME":"GALAXY 36 (G-36)","OBJECT_ID":"2022-170B","EPOCH":"2026-04-26T19:59:20.531328","MEAN_MOTION":1.00271492,"ECCENTRICITY":0.0002758,"INCLINATION":0.0121,"RA_OF_ASC_NODE":194.1443,"ARG_OF_PERICENTER":230.6028,"MEAN_ANOMALY":0.9164,"EPHEMERIS_TYPE":0,"CLASSIFICATION_TYPE":"U","NORAD_CAT_ID":54742,"ELEMENT_SET_NO":999,"REV_AT_EPOCH":1225,"BSTAR":0,"MEAN_MOTION_DOT":-1.96e-6,"MEAN_MOTION_DDOT":0},{"OBJECT_NAME":"GALAXY 37 (G-37)","OBJECT_ID":"2023-112A","EPOCH":"2026-04-26T16:23:09.306240","MEAN_MOTION":1.0027022,"ECCENTRICITY":0.0002178,"INCLINATION":0.0133,"RA_OF_ASC_NODE":243.6122,"ARG_OF_PERICENTER":150.2007,"MEAN_ANOMALY":299.6602,"EPHEMERIS_TYPE":0,"CLASSIFICATION_TYPE":"U","NORAD_CAT_ID":57493,"ELEMENT_SET_NO":999,"REV_AT_EPOCH":1002,"BSTAR":0,"MEAN_MOTION_DOT":0,"MEAN_MOTION_DDOT":0}]
